[
    {
        "Altitude(m)": 612513.9148216854,
        "Argument of Periapsis(deg)": 0.0,
        "Eccentricity": 0.0,
        "Inclination(deg)": 60.0,
        "Latitude(deg)": -28.135908940125994,
        "Longitude(deg)": 162.91306573009842,
        "Mean Anomaly(deg)": 212.72729999999999,
        "RAAN(deg)": 65.0,
        "Satellite Name": "Test1 299",
        "Satellite Number": 299,
        "Semi-Major Axis(m)": 6980739.136638005,
        "Time(s)": 0
    },
    {
        "Altitude(m)": 612708.2827794884,
        "Argument of Periapsis(deg)": 0.00010418945913296404,
        "Eccentricity": 0.0,
        "Inclination(deg)": 60.0,
        "Latitude(deg)": -28.647648683776175,
        "Longitude(deg)": 163.27029486342133,
        "Mean Anomaly(deg)": 213.34740614546183,
        "RAAN(deg)": 64.99957995086025,
        "Satellite Name": "Test1 299",
        "Satellite Number": 299,
        "Semi-Major Axis(m)": 6980739.136638005,
        "Time(s)": 10
    }
]